{"type": "FeatureCollection", "crs": {"type": "name", "properties": {"name": "urn:ogc:def:crs:OGC:1.3:CRS84"}}, "bbox": [-164.90347246002, -52.1577287739643, 177.520356700634, 75.7934837911399], "features": [{"type": "Feature", "properties": {"dissolve": "1069River", "scalerank": 9.0, "featurecla": "River", "name": "Marne", "name_alt": null, "rivernum": 1069, "note": null, "min_zoom": 7.1, "name_en": "Marne", "min_label": 8.1}, "bbox": [2.40919, 47.877224, 5.407725, 49.090277], "geometry": {"type": "MultiLineString", "coordinates": [[[5.407725, 47.877224], [5.387462, 47.877305], [5.36378, 47.882636], [5.331798, 47.898505], [5.323416, 47.902777], [5.299083, 47.924994], [5.262706, 48.004462], [5.242198, 48.027167], [5.192882, 48.057807], [5.17921, 48.071845], [5.162364, 48.094509], [5.156912, 48.104804], [5.152761, 48.118028], [5.151134, 48.136501], [5.159923, 48.182237], [5.155935, 48.204291], [5.139415, 48.240912], [5.139415, 48.265082], [5.147716, 48.293402], [5.144786, 48.306952], [5.128347, 48.316189], [5.132579, 48.317898], [5.137218, 48.321601], [5.141775, 48.32685], [5.146251, 48.333564], [5.153982, 48.348212], [5.159923, 48.364122], [5.163341, 48.379259], [5.163341, 48.391628], [5.153005, 48.437323], [5.153819, 48.442939], [5.161388, 48.452094], [5.16212, 48.456407], [5.156261, 48.462348], [5.13323, 48.481228], [5.113292, 48.511339], [5.059744, 48.56269], [5.042247, 48.588731], [5.041515, 48.593695], [5.044119, 48.60574], [5.043386, 48.609646], [5.036306, 48.613349], [5.02947, 48.612372], [5.022472, 48.61046], [5.015798, 48.611396], [4.992117, 48.622504], [4.970632, 48.628933], [4.948253, 48.631415], [4.900645, 48.631293], [4.837413, 48.644599], [4.795177, 48.645819], [4.711436, 48.638617], [4.668956, 48.646918], [4.644786, 48.658393], [4.584239, 48.702948], [4.580577, 48.710273], [4.574229, 48.746365], [4.568289, 48.7567], [4.560069, 48.766059], [4.55071, 48.774115], [4.540701, 48.780585], [4.533214, 48.789008], [4.512462, 48.828396], [4.493907, 48.8463], [4.473399, 48.86164], [4.463796, 48.865261], [4.441173, 48.870185], [4.433767, 48.87519], [4.41863, 48.895575], [4.410818, 48.903754], [4.40032, 48.912421], [4.368663, 48.931912], [4.358897, 48.940701], [4.340099, 48.969591], [4.329845, 48.977851], [4.311778, 48.985053], [4.249034, 48.999701], [4.167654, 49.039374], [4.136648, 49.045274], [4.033946, 49.046698], [4.019705, 49.049384], [4.014822, 49.054877], [4.01238, 49.061957], [4.005056, 49.069159], [3.994884, 49.072699], [3.959646, 49.075792], [3.894542, 49.088568], [3.806163, 49.082628], [3.756847, 49.090277], [3.540701, 49.088894], [3.513845, 49.081122], [3.463634, 49.055487], [3.435964, 49.048936], [3.413829, 49.047431], [3.40325, 49.044989], [3.393484, 49.039984], [3.389171, 49.03498], [3.3838, 49.02143], [3.380138, 49.01557], [3.373302, 49.010118], [3.346202, 48.995795], [3.329763, 48.990098], [3.279959, 48.981472], [3.263438, 48.977851], [3.247569, 48.977607], [3.232188, 48.980414], [3.19866, 48.992133], [3.186046, 48.993232], [3.175059, 48.988593], [3.143565, 48.966091], [3.125255, 48.958848], [3.105724, 48.955349], [3.038341, 48.956407], [3.013845, 48.961005], [3.003917, 48.969916], [3.01531, 48.97724], [3.03533, 48.981147], [3.047293, 48.989691], [3.034679, 49.010932], [3.024425, 49.016466], [3.017589, 49.012152], [3.011404, 49.004218], [3.003347, 48.999091], [2.992361, 48.998562], [2.956716, 49.002631], [2.952566, 49.003974], [2.948009, 49.002875], [2.940115, 48.996283], [2.930837, 48.983832], [2.935557, 48.97956], [2.943533, 48.975531], [2.943614, 48.963446], [2.92864, 48.946357], [2.908621, 48.943793], [2.888357, 48.946723], [2.872813, 48.94599], [2.864757, 48.937364], [2.852306, 48.912218], [2.844493, 48.905626], [2.829356, 48.90644], [2.820486, 48.914862], [2.808523, 48.938259], [2.795909, 48.943305], [2.778087, 48.9383], [2.757335, 48.929755], [2.72169, 48.920356], [2.723562, 48.914862], [2.739513, 48.905707], [2.749766, 48.902655], [2.762625, 48.902045], [2.767996, 48.898953], [2.756521, 48.888536], [2.735281, 48.880561], [2.637136, 48.872626], [2.572683, 48.879218], [2.562999, 48.878933], [2.55364, 48.877387], [2.545584, 48.873562], [2.537527, 48.864691], [2.525401, 48.845038], [2.513927, 48.836615], [2.491954, 48.832831], [2.482351, 48.82921], [2.482595, 48.822292], [2.493175, 48.81745], [2.508474, 48.813422], [2.52003, 48.807196], [2.52003, 48.795518], [2.508556, 48.786892], [2.494395, 48.788845], [2.480642, 48.796454], [2.456716, 48.813992], [2.44158, 48.817898], [2.425466, 48.818183], [2.40919, 48.816107]]]}}, {"type": "Feature", "properties": {"dissolve": "129River", "scalerank": 4.0, "featurecla": "River", "name": "Seine", "name_alt": null, "rivernum": 129, "note": null, "min_zoom": 4.0, "name_en": "Seine", "min_label": 5.0}, "bbox": [0.493175, 47.512641, 4.712657, 49.527167], "geometry": {"type": "MultiLineString", "coordinates": [[[4.712657, 47.512641], [4.704112, 47.526964], [4.700857, 47.540961], [4.704763, 47.554511], [4.705333, 47.571804], [4.707693, 47.577908], [4.704519, 47.585313], [4.697439, 47.59162], [4.690359, 47.599677], [4.687185, 47.612616], [4.687022, 47.63585], [4.685313, 47.644355], [4.673595, 47.678575], [4.667491, 47.684394], [4.653005, 47.691189], [4.623057, 47.697618], [4.610362, 47.703315], [4.605235, 47.714708], [4.59962, 47.741034], [4.585216, 47.763007], [4.565196, 47.780585], [4.543142, 47.793565], [4.54656, 47.805854], [4.56365, 47.834499], [4.570486, 47.852607], [4.576182, 47.862576], [4.584727, 47.869249], [4.566173, 47.868923], [4.552989, 47.875434], [4.543712, 47.885769], [4.536876, 47.896593], [4.542898, 47.899441], [4.545665, 47.902615], [4.547618, 47.906195], [4.550548, 47.910224], [4.536062, 47.919949], [4.50587, 47.958075], [4.505544, 47.966864], [4.49171, 47.985785], [4.475352, 48.003689], [4.467459, 48.009304], [4.453543, 48.027045], [4.392589, 48.062038], [4.378673, 48.092108], [4.378673, 48.112901], [4.375906, 48.123074], [4.365977, 48.12873], [4.344656, 48.136176], [4.335623, 48.140815], [4.330496, 48.145209], [4.324474, 48.148505], [4.313487, 48.149848], [4.284353, 48.148464], [4.275645, 48.149848], [4.182791, 48.212592], [4.159597, 48.211859], [4.152843, 48.226142], [4.14503, 48.239081], [4.134288, 48.25019], [4.125499, 48.259101], [4.111827, 48.275214], [4.084483, 48.324897], [4.067068, 48.335395], [4.043386, 48.342882], [4.0053, 48.375759], [3.977306, 48.391913], [3.94044, 48.444648], [3.913259, 48.472357], [3.903738, 48.487128], [3.905772, 48.499294], [3.872813, 48.521674], [3.831065, 48.528754], [3.787283, 48.531317], [3.748057, 48.540229], [3.743337, 48.54446], [3.730968, 48.560736], [3.726573, 48.562934], [3.720876, 48.56684], [3.715994, 48.568671], [3.713878, 48.56448], [3.711843, 48.562079], [3.70696, 48.558702], [3.701182, 48.555772], [3.696951, 48.554511], [3.676524, 48.553168], [3.65504, 48.548774], [3.635671, 48.541287], [3.621349, 48.530341], [3.608165, 48.523017], [3.588878, 48.520535], [3.550059, 48.519802], [3.543875, 48.52204], [3.537039, 48.52619], [3.531261, 48.526313], [3.528982, 48.516669], [3.524832, 48.512152], [3.504893, 48.50141], [3.498546, 48.499294], [3.488943, 48.498358], [3.476003, 48.493964], [3.46754, 48.492458], [3.461599, 48.492743], [3.455984, 48.493679], [3.449229, 48.493964], [3.440196, 48.492458], [3.43922, 48.489936], [3.419119, 48.472602], [3.409841, 48.469265], [3.402029, 48.469428], [3.396007, 48.467556], [3.392345, 48.458319], [3.384939, 48.458319], [3.370779, 48.465847], [3.350271, 48.466905], [3.331554, 48.461127], [3.323497, 48.448065], [3.314626, 48.439317], [3.293875, 48.431708], [3.254649, 48.42414], [3.210216, 48.433417], [3.187266, 48.435736], [3.168956, 48.427924], [3.15447, 48.418036], [3.11321, 48.40115], [3.096934, 48.396837], [3.074718, 48.395616], [3.012218, 48.403673], [2.863048, 48.381619], [2.851085, 48.386908], [2.846934, 48.391303], [2.826834, 48.401679], [2.820079, 48.403673], [2.815115, 48.402655], [2.805675, 48.397976], [2.799734, 48.396837], [2.795909, 48.399848], [2.796397, 48.406562], [2.797781, 48.41352], [2.79656, 48.417344], [2.78297, 48.418728], [2.768565, 48.417751], [2.75587, 48.41828], [2.747488, 48.42414], [2.745779, 48.437079], [2.752696, 48.447455], [2.76238, 48.456366], [2.767996, 48.465155], [2.761729, 48.483995], [2.739268, 48.487738], [2.710867, 48.487087], [2.686697, 48.492458], [2.677989, 48.502143], [2.677013, 48.512234], [2.677419, 48.522895], [2.671804, 48.534003], [2.66033, 48.540351], [2.649669, 48.537665], [2.631358, 48.526638], [2.614268, 48.52322], [2.604991, 48.524359], [2.583018, 48.534003], [2.54713, 48.542426], [2.535167, 48.547065], [2.535167, 48.554511], [2.54835, 48.561062], [2.544119, 48.566718], [2.515391, 48.575019], [2.49171, 48.575873], [2.488536, 48.582831], [2.488048, 48.605414], [2.475759, 48.629462], [2.447276, 48.652289], [2.391856, 48.684882], [2.426036, 48.714911], [2.440929, 48.731513], [2.443126, 48.742947], [2.427745, 48.756781], [2.422048, 48.763699], [2.419688, 48.770819], [2.420339, 48.791775], [2.418224, 48.796739], [2.412283, 48.807807], [2.39088, 48.833848], [2.358816, 48.855414], [2.32252, 48.866807], [2.288829, 48.862372], [2.254812, 48.838487], [2.235362, 48.833808], [2.226817, 48.85281], [2.233165, 48.869086], [2.248464, 48.886257], [2.266612, 48.90115], [2.281993, 48.910834], [2.319102, 48.923448], [2.327322, 48.930732], [2.329845, 48.94831], [2.318858, 48.958116], [2.294688, 48.956732], [2.254649, 48.944892], [2.229259, 48.92829], [2.213878, 48.920762], [2.1963, 48.91767], [2.183767, 48.912909], [2.162852, 48.890489], [2.151622, 48.88288], [2.124929, 48.886176], [2.121755, 48.910712], [2.136241, 48.938544], [2.166515, 48.954128], [2.172293, 48.960028], [2.177013, 48.967841], [2.178966, 48.975653], [2.177419, 48.984971], [2.173106, 48.988593], [2.166677, 48.990058], [2.145274, 48.997178], [2.093272, 49.00019], [2.072765, 48.995185], [2.060964, 48.982978], [2.041759, 48.951768], [2.024425, 48.942816], [2.008311, 48.946641], [2.000255, 48.959825], [2.007742, 48.979071], [1.990001, 49.00141], [1.977957, 49.009548], [1.95989, 49.013861], [1.941091, 49.013617], [1.813894, 48.981269], [1.798839, 48.979315], [1.764659, 48.979071], [1.75115, 48.982245], [1.733897, 48.990058], [1.719168, 49.000108], [1.71282, 49.010077], [1.704031, 49.013536], [1.647878, 49.013861], [1.619314, 49.020209], [1.636892, 49.035509], [1.699148, 49.069037], [1.674734, 49.076361], [1.653494, 49.078192], [1.633067, 49.073594], [1.589122, 49.047471], [1.577566, 49.042833], [1.562022, 49.041124], [1.547048, 49.046413], [1.534841, 49.057929], [1.525157, 49.069403], [1.513845, 49.07746], [1.509695, 49.09101], [1.507335, 49.095771], [1.501964, 49.097846], [1.485525, 49.100531], [1.479421, 49.102607], [1.457042, 49.126166], [1.448985, 49.12995], [1.438975, 49.133002], [1.432058, 49.140326], [1.425955, 49.149359], [1.41863, 49.157172], [1.387136, 49.174262], [1.384451, 49.17829], [1.358816, 49.183295], [1.346446, 49.197537], [1.350597, 49.212429], [1.374278, 49.219306], [1.389903, 49.226426], [1.389659, 49.241156], [1.375499, 49.253445], [1.349783, 49.253445], [1.333425, 49.244574], [1.295584, 49.218044], [1.278575, 49.21247], [1.26824, 49.213568], [1.243907, 49.219306], [1.232839, 49.223497], [1.235281, 49.232856], [1.242849, 49.242255], [1.247325, 49.246609], [1.253835, 49.256415], [1.258718, 49.260362], [1.261241, 49.265815], [1.260183, 49.291693], [1.258718, 49.300482], [1.253917, 49.306098], [1.088552, 49.314643], [1.034679, 49.29739], [1.006277, 49.294542], [0.993419, 49.308051], [1.003347, 49.319403], [1.026378, 49.327989], [1.052745, 49.333441], [1.092459, 49.336859], [1.108572, 49.342882], [1.119314, 49.355333], [1.12379, 49.376288], [1.114757, 49.411933], [1.089773, 49.440009], [1.056163, 49.449978], [1.021414, 49.430935], [1.000662, 49.372016], [0.990001, 49.362657], [0.952322, 49.356228], [0.933035, 49.357489], [0.917735, 49.370144], [0.913585, 49.388739], [0.9192, 49.40766], [0.927664, 49.427436], [0.932058, 49.448594], [0.929128, 49.472846], [0.920095, 49.486151], [0.90504, 49.490058], [0.873953, 49.483588], [0.866628, 49.480984], [0.86085, 49.475857], [0.856212, 49.465684], [0.857188, 49.458441], [0.866628, 49.430935], [0.872325, 49.425605], [0.867931, 49.41413], [0.860362, 49.40351], [0.856212, 49.400499], [0.851003, 49.394395], [0.839285, 49.399034], [0.811534, 49.42003], [0.809011, 49.426215], [0.808523, 49.438341], [0.820242, 49.455756], [0.82488, 49.467353], [0.819347, 49.47252], [0.813894, 49.474677], [0.799978, 49.484076], [0.780284, 49.488878], [0.778005, 49.495714], [0.77825, 49.504584], [0.774343, 49.513495], [0.759695, 49.522081], [0.739919, 49.526068], [0.695486, 49.527167], [0.681163, 49.519599], [0.671641, 49.501899], [0.658376, 49.465684], [0.647634, 49.45307], [0.6338, 49.444607], [0.615896, 49.439887], [0.592459, 49.438341], [0.572927, 49.444037], [0.540212, 49.473171], [0.520437, 49.486151], [0.508067, 49.492051], [0.501882, 49.493598], [0.493175, 49.493598]]]}}, {"type": "Feature", "properties": {"dissolve": "302River", "scalerank": 6.0, "featurecla": "River", "name": "Thames", "name_alt": null, "rivernum": 302, "note": "Version 1.2 edit in N. America and Europe", "min_zoom": 5.0, "name_en": "Thames", "min_label": 6.0}, "bbox": [-2.050771, 51.389594, 0.384532, 51.842068], "geometry": {"type": "MultiLineString", "coordinates": [[[-2.050771, 51.842068], [-2.022125, 51.834581], [-1.997874, 51.820583], [-1.979726, 51.796983], [-1.971181, 51.770616], [-1.969472, 51.735216], [-1.951568, 51.713243], [-1.937978, 51.69005], [-1.848215, 51.658067], [-1.828684, 51.6553], [-1.818186, 51.657416], [-1.739695, 51.66002], [-1.720286, 51.665391], [-1.715077, 51.669623], [-1.710032, 51.675849], [-1.703318, 51.681952], [-1.692942, 51.685858], [-1.682688, 51.685411], [-1.640859, 51.678412], [-1.620025, 51.681667], [-1.562001, 51.700141], [-1.483713, 51.700141], [-1.472808, 51.702338], [-1.451243, 51.711737], [-1.439443, 51.713813], [-1.428538, 51.711737], [-1.416819, 51.707546], [-1.404286, 51.704657], [-1.391265, 51.706366], [-1.375234, 51.720526], [-1.36148, 51.760199], [-1.343495, 51.775255], [-1.32551, 51.781928], [-1.313954, 51.783637], [-1.30134, 51.782091], [-1.294179, 51.776435], [-1.284332, 51.758612], [-1.257802, 51.745144], [-1.248118, 51.723741], [-1.241526, 51.70246], [-1.230214, 51.692694], [-1.222157, 51.689521], [-1.222157, 51.682481], [-1.229807, 51.675401], [-1.288889, 51.659247], [-1.272898, 51.647325], [-1.252594, 51.6435], [-1.216298, 51.644965], [-1.214915, 51.649726], [-1.206532, 51.658026], [-1.197092, 51.66059], [-1.190256, 51.63996], [-1.183827, 51.63585], [-1.143137, 51.624132], [-1.130686, 51.617214], [-1.125071, 51.604438], [-1.123769, 51.579779], [-1.130767, 51.565619], [-1.143544, 51.552802], [-1.150095, 51.537218], [-1.13801, 51.514594], [-1.123118, 51.503201], [-1.103342, 51.494574], [-1.081125, 51.489122], [-1.058909, 51.487331], [-1.041575, 51.482245], [-1.003651, 51.459337], [-0.987253, 51.453152], [-0.964508, 51.454698], [-0.931223, 51.469916], [-0.906809, 51.476508], [-0.887034, 51.491238], [-0.880442, 51.497504], [-0.87328, 51.507514], [-0.874094, 51.512966], [-0.878896, 51.518256], [-0.883616, 51.528266], [-0.887034, 51.548163], [-0.882151, 51.551093], [-0.868723, 51.546169], [-0.846262, 51.542548], [-0.774241, 51.55683], [-0.760732, 51.555528], [-0.743153, 51.562079], [-0.718984, 51.563341], [-0.696848, 51.55919], [-0.685618, 51.549384], [-0.688791, 51.529812], [-0.699452, 51.517401], [-0.701243, 51.507188], [-0.678782, 51.494086], [-0.661692, 51.491645], [-0.620188, 51.495063], [-0.603586, 51.494086], [-0.590484, 51.487331], [-0.579091, 51.475531], [-0.572906, 51.460964], [-0.575754, 51.445665], [-0.531565, 51.433702], [-0.469797, 51.389594], [-0.424875, 51.391059], [-0.417958, 51.394355], [-0.411366, 51.398383], [-0.403066, 51.402208], [-0.390696, 51.404731], [-0.384999, 51.407172], [-0.379709, 51.41116], [-0.37385, 51.412787], [-0.349558, 51.399766], [-0.349192, 51.398505], [-0.334381, 51.398383], [-0.32372, 51.400906], [-0.3155, 51.407294], [-0.308176, 51.419013], [-0.318796, 51.428046], [-0.320383, 51.436103], [-0.308176, 51.445665], [-0.32315, 51.464708], [-0.310129, 51.472683], [-0.270985, 51.47366], [-0.259592, 51.475775], [-0.24706, 51.485175], [-0.23648, 51.487331], [-0.226064, 51.484198], [-0.20995, 51.470649], [-0.198313, 51.467393], [-0.17927, 51.470079], [-0.156728, 51.477362], [-0.135487, 51.487169], [-0.102203, 51.50906], [-0.084788, 51.511664], [-0.067209, 51.508083], [-0.048777, 51.500922], [-0.037668, 51.497504], [-0.006581, 51.494086], [0.009939, 51.500596], [0.020681, 51.502387], [0.048269, 51.491156], [0.071951, 51.492499], [0.128673, 51.504584], [0.148448, 51.505194], [0.168468, 51.499457], [0.188406, 51.483832], [0.20338, 51.476508], [0.274669, 51.459988], [0.306326, 51.466905], [0.322276, 51.466986], [0.329275, 51.45657], [0.337576, 51.448757], [0.356375, 51.446397], [0.368175, 51.448798], [0.384532, 51.453152]]]}}, {"type": "Feature", "properties": {"dissolve": "668Lake Centerline", "scalerank": 8.0, "featurecla": "Lake Centerline", "name": "Shannon", "name_alt": null, "rivernum": 668, "note": null, "min_zoom": 7.0, "name_en": "Shannon", "min_label": 8.0}, "bbox": [-8.449127, 52.816759, -7.940012, 53.879503], "geometry": {"type": "MultiLineString", "coordinates": [[[-7.940012, 53.839667], [-7.952707, 53.853339], [-7.960927, 53.857245], [-7.973785, 53.86579], [-7.980702, 53.874864], [-7.982981, 53.879421], [-7.982981, 53.879503]], [[-8.00414, 53.666531], [-8.017893, 53.652371], [-8.031809, 53.630968], [-8.024403, 53.610541], [-8.007069, 53.587266], [-7.984934, 53.561347], [-7.97289, 53.545437], [-7.965321, 53.529242], [-7.957672, 53.496039], [-7.957834, 53.454454]], [[-8.449127, 52.816759], [-8.445627, 52.833604], [-8.421213, 52.865994], [-8.406199, 52.889716], [-8.396881, 52.900458], [-8.377756, 52.912543], [-8.353505, 52.919949], [-8.326405, 52.925849], [-8.311187, 52.943183], [-8.307362, 52.967637], [-8.305735, 52.986884], [-8.299794, 53.001899], [-8.285227, 53.015652], [-8.269358, 53.032294], [-8.25536, 53.045844], [-8.23705, 53.055121], [-8.198557, 53.078721]]]}}, {"type": "Feature", "properties": {"dissolve": "668River", "scalerank": 8.0, "featurecla": "River", "name": "Shannon", "name_alt": null, "rivernum": 668, "note": null, "min_zoom": 7.0, "name_en": "Shannon", "min_label": 8.0}, "bbox": [-8.738515, 52.651068, -7.884836, 54.06391], "geometry": {"type": "MultiLineString", "coordinates": [[[-8.06843, 54.06391], [-8.081532, 54.058051], [-8.089345, 54.050157], [-8.090647, 54.038926], [-8.08373, 54.009304], [-8.081044, 54.004259], [-8.065419, 53.998481], [-8.067698, 53.990058], [-8.075022, 53.981798], [-8.079172, 53.97838], [-8.086252, 53.975206], [-8.099436, 53.964179], [-8.106923, 53.952501], [-8.096588, 53.947089], [-8.092356, 53.943671], [-8.094146, 53.926703], [-8.092844, 53.920356], [-8.085032, 53.91706], [-8.066965, 53.917914], [-8.059316, 53.912909], [-8.046946, 53.918524], [-8.036529, 53.92536], [-8.028635, 53.932929], [-8.023997, 53.940863], [-7.994944, 53.915066], [-7.985666, 53.900214], [-7.982981, 53.879421]], [[-7.940012, 53.839667], [-7.92691, 53.825507], [-7.92219, 53.811469], [-7.915598, 53.798692], [-7.901112, 53.790066], [-7.89387, 53.79267], [-7.887766, 53.788886], [-7.884836, 53.780463], [-7.887441, 53.769558], [-7.894032, 53.765489], [-7.929026, 53.755235], [-7.926584, 53.751532], [-7.92219, 53.741645], [-7.931386, 53.742743], [-7.938791, 53.7414], [-7.944895, 53.738715], [-7.949534, 53.735419], [-7.95051, 53.731757], [-7.949452, 53.726915], [-7.949045, 53.722846], [-7.969309, 53.714301], [-7.987864, 53.695014], [-7.996897, 53.68244], [-8.00414, 53.666531]], [[-7.957834, 53.454454], [-7.932607, 53.397895], [-7.933095, 53.375596], [-7.962473, 53.351833], [-8.00414, 53.330105], [-8.012685, 53.323798], [-8.020334, 53.31391], [-8.041819, 53.292426], [-8.04776, 53.28205], [-8.044667, 53.27265], [-8.031402, 53.261786], [-7.977528, 53.236518], [-7.969309, 53.224555], [-7.976796, 53.207384], [-7.994862, 53.197089], [-8.038319, 53.186713], [-8.094309, 53.162665], [-8.117014, 53.159451], [-8.137685, 53.152696], [-8.154286, 53.13642], [-8.1822, 53.097357], [-8.198557, 53.078721]], [[-8.449127, 52.816759], [-8.446767, 52.793484], [-8.459706, 52.771348], [-8.477122, 52.75495], [-8.509267, 52.744208], [-8.509185, 52.733832], [-8.504954, 52.721259], [-8.507517, 52.710313], [-8.513254, 52.706326], [-8.520334, 52.703315], [-8.528066, 52.701361], [-8.53539, 52.70071], [-8.5454, 52.69835], [-8.549306, 52.692735], [-8.552073, 52.686062], [-8.55842, 52.680243], [-8.568186, 52.676337], [-8.579172, 52.673855], [-8.591868, 52.672675], [-8.60676, 52.672797], [-8.612131, 52.67475], [-8.615387, 52.67829], [-8.619456, 52.680976], [-8.627268, 52.680243], [-8.632395, 52.675727], [-8.635325, 52.661973], [-8.638173, 52.659125], [-8.666005, 52.652777], [-8.682607, 52.651068], [-8.690012, 52.655707], [-8.695139, 52.666124], [-8.70759, 52.671902], [-8.722971, 52.673855], [-8.738515, 52.672797]]]}}, {"type": "Feature", "properties": {"dissolve": "690Lake Centerline", "scalerank": 8.0, "featurecla": "Lake Centerline", "name": "Ness", "name_alt": null, "rivernum": 690, "note": null, "min_zoom": 7.0, "name_en": "Ness", "min_label": 8.0}, "bbox": [-4.676096, 57.147732, -4.343984, 57.394314], "geometry": {"type": "MultiLineString", "coordinates": [[[-4.676096, 57.147732], [-4.675445, 57.147976], [-4.639475, 57.170274], [-4.619944, 57.181464], [-4.559641, 57.224433], [-4.526438, 57.242296], [-4.509999, 57.252224], [-4.467844, 57.290839], [-4.398671, 57.346544], [-4.357655, 57.372626], [-4.343984, 57.394314]]]}}, {"type": "Feature", "properties": {"dissolve": "690River", "scalerank": 8.0, "featurecla": "River", "name": "Ness", "name_alt": null, "rivernum": 690, "note": null, "min_zoom": 7.0, "name_en": "Ness", "min_label": 8.0}, "bbox": [-4.343902, 57.394355, -4.226064, 57.49433], "geometry": {"type": "MultiLineString", "coordinates": [[[-4.343902, 57.394355], [-4.323964, 57.406073], [-4.307688, 57.422065], [-4.29011, 57.436103], [-4.26594, 57.442206], [-4.266265, 57.445868], [-4.256907, 57.453925], [-4.246165, 57.461208], [-4.242136, 57.462673], [-4.23762, 57.465196], [-4.233144, 57.463975], [-4.229807, 57.464667], [-4.228505, 57.472846], [-4.229075, 57.477159], [-4.230051, 57.479193], [-4.230295, 57.482245], [-4.226064, 57.49433]]]}}, {"type": "Feature", "properties": {"dissolve": "691Lake Centerline", "scalerank": 8.0, "featurecla": "Lake Centerline", "name": "Oich", "name_alt": null, "rivernum": 691, "note": null, "min_zoom": 7.0, "name_en": "Oich", "min_label": 8.0}, "bbox": [-4.968984, 56.928168, -4.835846, 57.010199], "geometry": {"type": "MultiLineString", "coordinates": [[[-4.835846, 57.010199], [-4.841786, 57.006863], [-4.844797, 57.003974], [-4.854807, 56.997748], [-4.864329, 56.990505], [-4.882314, 56.972968], [-4.891428, 56.966661], [-4.914377, 56.95836], [-4.931223, 56.946316], [-4.94929, 56.938056], [-4.958079, 56.931667], [-4.968984, 56.928168]]]}}, {"type": "Feature", "properties": {"dissolve": "691River", "scalerank": 8.0, "featurecla": "River", "name": "Oich", "name_alt": null, "rivernum": 691, "note": null, "min_zoom": 7.0, "name_en": "Oich", "min_label": 8.0}, "bbox": [-4.835846, 57.010199, -4.675445, 57.147976], "geometry": {"type": "MultiLineString", "coordinates": [[[-4.675445, 57.147976], [-4.694081, 57.141872], [-4.705068, 57.135199], [-4.714101, 57.127875], [-4.721995, 57.120063], [-4.752268, 57.079047], [-4.775136, 57.071112], [-4.835846, 57.010199]]]}}, {"type": "Feature", "properties": {"dissolve": "822River", "scalerank": 8.0, "featurecla": "River", "name": "Trent", "name_alt": null, "rivernum": 822, "note": null, "min_zoom": 7.0, "name_en": "Trent", "min_label": 8.0}, "bbox": [-2.19636, 52.753119, -0.705556, 53.691962], "geometry": {"type": "MultiLineString", "coordinates": [[[-2.164052, 53.040147], [-2.194244, 52.998114], [-2.19636, 52.979315], [-2.182688, 52.95246], [-2.166453, 52.9324], [-2.147654, 52.914822], [-2.104563, 52.886013], [-2.050608, 52.862128], [-2.035227, 52.851386], [-1.998687, 52.814317], [-1.981842, 52.804511], [-1.900787, 52.769843], [-1.88036, 52.765489], [-1.834299, 52.765977], [-1.794016, 52.76496], [-1.730458, 52.753119], [-1.712961, 52.759223], [-1.680084, 52.783881], [-1.653391, 52.799018], [-1.586252, 52.853135], [-1.559519, 52.865343], [-1.530751, 52.869737], [-1.408437, 52.860053], [-1.380849, 52.863552], [-1.295644, 52.894395], [-1.262847, 52.895819], [-1.222157, 52.915635], [-1.144521, 52.964057], [-1.100535, 52.973822], [-1.063954, 52.968573], [-1.051829, 52.968817], [-1.038319, 52.974921], [-1.028798, 52.993923], [-0.983957, 53.008165], [-0.911936, 53.058417], [-0.830556, 53.09748], [-0.802887, 53.125596], [-0.790598, 53.157579], [-0.768381, 53.278673], [-0.748362, 53.311713], [-0.744944, 53.322781], [-0.747141, 53.330634], [-0.76301, 53.362616], [-0.767649, 53.366889], [-0.774241, 53.369574], [-0.77953, 53.372992], [-0.780263, 53.379706], [-0.775787, 53.390489], [-0.774485, 53.396064], [-0.775461, 53.401313], [-0.788808, 53.419501], [-0.798655, 53.429226], [-0.801503, 53.439887], [-0.794016, 53.461127], [-0.780344, 53.482611], [-0.749013, 53.519965], [-0.739247, 53.542996], [-0.724436, 53.664903], [-0.705556, 53.691962]]]}}, {"type": "Feature", "properties": {"dissolve": "870River", "scalerank": 8.0, "featurecla": "River", "name": "Severn", "name_alt": null, "rivernum": 870, "note": "Version 1.2 edit in N. America and Europe", "min_zoom": 7.0, "name_en": "Severn", "min_label": 8.0}, "bbox": [-3.690745, 51.777777, -2.15331, 52.746772], "geometry": {"type": "MultiLineString", "coordinates": [[[-3.690745, 52.528998], [-3.663645, 52.524766], [-3.644846, 52.518663], [-3.630849, 52.498155], [-3.612782, 52.484971], [-3.586822, 52.473497], [-3.560862, 52.465928], [-3.543691, 52.464138], [-3.509999, 52.452338], [-3.48705, 52.452338], [-3.464833, 52.455146], [-3.445627, 52.465399], [-3.437571, 52.476101], [-3.427642, 52.500067], [-3.421091, 52.510688], [-3.410227, 52.519151], [-3.397288, 52.524359], [-3.369618, 52.528591], [-3.277821, 52.526435], [-3.248118, 52.534044], [-3.22761, 52.544989], [-3.190745, 52.573676], [-3.156077, 52.610053], [-3.073557, 52.727118], [-3.056386, 52.740546], [-3.049224, 52.743964], [-3.045562, 52.745225], [-3.0419, 52.746121], [-3.02831, 52.746772], [-2.96996, 52.74079], [-2.927724, 52.740994], [-2.913075, 52.738634], [-2.884755, 52.730902], [-2.870513, 52.728542], [-2.850657, 52.730292], [-2.81135, 52.741034], [-2.791331, 52.742255], [-2.789784, 52.739122], [-2.790028, 52.725613], [-2.788157, 52.721381], [-2.777537, 52.718817], [-2.744618, 52.721788], [-2.727528, 52.718573], [-2.720286, 52.714057], [-2.716624, 52.707465], [-2.70995, 52.69831], [-2.661855, 52.65705], [-2.632558, 52.639757], [-2.606638, 52.633246], [-2.514475, 52.64765], [-2.482493, 52.641303], [-2.465077, 52.628689], [-2.45344, 52.609809], [-2.438873, 52.566107], [-2.437245, 52.555243], [-2.437082, 52.532904], [-2.434153, 52.52204], [-2.373362, 52.429958], [-2.345774, 52.398301], [-2.304026, 52.362982], [-2.286936, 52.341579], [-2.27656, 52.331], [-2.272043, 52.321967], [-2.271474, 52.315985], [-2.272532, 52.299994], [-2.271392, 52.291815], [-2.265452, 52.278184], [-2.250885, 52.253119], [-2.244944, 52.237331], [-2.241038, 52.207221], [-2.238596, 52.199897], [-2.232004, 52.186591], [-2.229482, 52.179267], [-2.228505, 52.160468], [-2.235748, 52.124294], [-2.236562, 52.107611], [-2.23176, 52.094835], [-2.188954, 52.021348], [-2.178131, 52.008857], [-2.155019, 51.991767], [-2.15331, 51.990261], [-2.220204, 51.92947], [-2.252675, 51.910427], [-2.260976, 51.901923], [-2.254709, 51.885932], [-2.254221, 51.880479], [-2.257883, 51.873887], [-2.26358, 51.867621], [-2.291005, 51.845038], [-2.299387, 51.843573], [-2.30842, 51.845771], [-2.325673, 51.845526], [-2.338368, 51.840928], [-2.344228, 51.833564], [-2.347727, 51.824164], [-2.353017, 51.813788], [-2.362375, 51.804511], [-2.384104, 51.78852], [-2.391347, 51.777777]]]}}, {"type": "Feature", "properties": {"dissolve": "953River", "scalerank": 8.0, "featurecla": "River", "name": "Caledonian Canal", "name_alt": null, "rivernum": 953, "note": null, "min_zoom": 7.0, "name_en": "Caledonian Canal", "min_label": 8.0}, "bbox": [-5.119781, 56.818427, -4.968984, 56.928168], "geometry": {"type": "MultiLineString", "coordinates": [[[-4.968984, 56.928168], [-4.985829, 56.911892], [-5.028147, 56.889838], [-5.10733, 56.833564], [-5.119781, 56.818427]]]}}]}