{"type": "FeatureCollection", "name": "ne_10m_rivers_europe", "crs": {"type": "name", "properties": {"name": "urn:ogc:def:crs:OGC:1.3:CRS84"}}, "features": [{"type": "Feature", "properties": {"id": 6931, "wso_id": 83773, "objectid": 716, "featurecla": "River", "scalerank": 10, "rivernum": 401716, "dissolve": "401716River", "name": "Annalee", "min_zoom": 6, "strokeweig": 0.2, "name_alt": "Erne", "min_label": 7, "label": "Annalee", "wikidataid": "Q11958206", "name_ar": null, "name_bn": null, "name_de": null, "name_en": "Annalee", "name_es": null, "name_fr": null, "name_el": null, "name_hi": null, "name_hu": null, "name_id": null, "name_it": null, "name_ja": null, "name_ko": null, "name_nl": null, "name_pl": null, "name_pt": null, "name_ru": null, "name_sv": null, "name_tr": null, "name_vi": null, "name_zh": null, "ne_id": 1159108397, "name_fa": null, "name_he": null, "name_uk": null, "name_ur": null, "name_zht": null}, "bbox": [-8.210113, 54.045803, -6.815094, 54.501939], "geometry": {"type": "MultiLineString", "coordinates": [[[-6.815094, 54.05801], [-6.855702, 54.051174], [-6.919504, 54.053371], [-6.971791, 54.045803], [-7.004018, 54.045966], [-7.111399, 54.063422], [-7.179189, 54.062974], [-7.214019, 54.070258], [-7.242055, 54.061469], [-7.269602, 54.058173], [-7.346344, 54.061021], [-7.385894, 54.051703], [-7.40689, 54.056057], [-7.420969, 54.065823], [-7.427154, 54.083482], [-7.45051, 54.098375], [-7.44872, 54.106391], [-7.440663, 54.116889], [-7.436025, 54.130276], [-7.46052, 54.154446]], [[-7.551015, 54.276597], [-7.553375, 54.29149], [-7.570668, 54.305732], [-7.589345, 54.31094], [-7.610422, 54.31151], [-7.627431, 54.314439], [-7.636342, 54.325344], [-7.645009, 54.347805], [-7.654286, 54.373603]], [[-8.011098, 54.480211], [-8.037668, 54.48432], [-8.079335, 54.488023], [-8.125315, 54.499213], [-8.210113, 54.501939]]]}}, {"type": "Feature", "properties": {"id": 6419, "wso_id": 83751, "objectid": 841, "featurecla": "River", "scalerank": 10, "rivernum": 401841, "dissolve": "401841River", "name": "Great Ouse", "min_zoom": 6, "strokeweig": 0.2, "name_alt": null, "min_label": 7, "label": "Great Ouse", "wikidataid": "Q19716", "name_ar": null, "name_bn": null, "name_de": "Great Ouse", "name_en": "Great Ouse", "name_es": "Gran Ouse", "name_fr": "Great Ouse", "name_el": null, "name_hi": null, "name_hu": null, "name_id": null, "name_it": "Great Ouse", "name_ja": "\u30b0\u30ec\u30fc\u30c8\u30a6\u30fc\u30ba\u5ddd", "name_ko": "\uadf8\ub808\uc774\ud2b8\uc6b0\uc988\uac15", "name_nl": "Great Ouse", "name_pl": "Great Ouse", "name_pt": null, "name_ru": "\u0413\u0440\u0435\u0439\u0442-\u0423\u0437", "name_sv": "Great Ouse", "name_tr": null, "name_vi": null, "name_zh": "\u5927\u70cf\u8332\u6cb3", "ne_id": 1159108553, "name_fa": "\u06af\u0631\u06cc\u062a \u0627\u0648\u0632", "name_he": "\u05e0\u05d4\u05e8 \u05d0\u05d5\u05d6 \u05d4\u05d2\u05d3\u05d5\u05dc", "name_uk": "\u0413\u0440\u0435\u0439\u0442-\u0423\u0437", "name_ur": null, "name_zht": "\u5927\u70cf\u8332\u6cb3"}, "bbox": [-1.185699, 51.947496, 0.384532, 52.768378], "geometry": {"type": "LineString", "coordinates": [[-1.185699, 51.960761], [-1.151235, 51.964993], [-1.115875, 51.964423], [-1.044789, 51.949205], [-1.015004, 51.947496], [-0.989247, 51.958564], [-0.934804, 52.010403], [-0.86559, 52.054185], [-0.8544, 52.065172], [-0.842275, 52.071763], [-0.809397, 52.079535], [-0.774403, 52.092515], [-0.757436, 52.111802], [-0.745351, 52.133694], [-0.722401, 52.152655], [-0.692942, 52.163398], [-0.643666, 52.16828], [-0.62914, 52.181301], [-0.616526, 52.198147], [-0.599477, 52.210435], [-0.580719, 52.216783], [-0.563954, 52.219428], [-0.548573, 52.21662], [-0.533193, 52.209866], [-0.525136, 52.199612], [-0.530873, 52.172349], [-0.525787, 52.151597], [-0.509836, 52.136664], [-0.48705, 52.135159], [-0.463857, 52.139553], [-0.434804, 52.138373], [-0.407094, 52.149604], [-0.350575, 52.15762], [-0.325429, 52.16592], [-0.305898, 52.178412], [-0.289418, 52.192939], [-0.278188, 52.209947], [-0.264272, 52.244045], [-0.236643, 52.267157], [-0.200673, 52.316555], [-0.176015, 52.33393], [-0.146474, 52.340562], [-0.11498, 52.340277], [-0.089467, 52.334459], [-0.060943, 52.323188], [-0.040273, 52.321194], [0.0324, 52.363105], [0.171153, 52.464301], [0.304047, 52.570461], [0.362559, 52.624416], [0.365082, 52.641343], [0.361501, 52.673082], [0.368012, 52.696519], [0.364594, 52.71133], [0.364594, 52.727362], [0.375743, 52.742092], [0.384532, 52.768378]]}}, {"type": "Feature", "properties": {"id": 7028, "wso_id": 83770, "objectid": 1054, "featurecla": "River", "scalerank": 10, "rivernum": 402054, "dissolve": "402054River", "name": "Tweed", "min_zoom": 6, "strokeweig": 0.2, "name_alt": null, "min_label": 7, "label": "Tweed", "wikidataid": "Q503262", "name_ar": "\u0646\u0647\u0631 \u062a\u0648\u064a\u062f", "name_bn": null, "name_de": "Tweed", "name_en": "Tweed", "name_es": "Tweed", "name_fr": "Tweed", "name_el": null, "name_hi": null, "name_hu": "Tweed", "name_id": null, "name_it": "Tweed", "name_ja": "\u30c4\u30a4\u30fc\u30c9\u5ddd", "name_ko": null, "name_nl": "Tweed", "name_pl": "Tweed", "name_pt": "Tweed", "name_ru": "\u0422\u0432\u0438\u0434", "name_sv": "Tweed", "name_tr": null, "name_vi": "Tweed", "name_zh": "\u7279\u5a01\u5fb7\u6cb3", "ne_id": 1159108853, "name_fa": "\u0631\u0648\u062f \u062a\u0648\u0626\u06cc\u062f", "name_he": null, "name_uk": "\u0422\u0432\u0456\u0434", "name_ur": null, "name_zht": "\u7279\u5a01\u5fb7\u6cb3"}, "bbox": [-3.496205, 55.442125, -2.023061, 55.805854], "geometry": {"type": "LineString", "coordinates": [[-3.484527, 55.442125], [-3.493479, 55.456204], [-3.496205, 55.469143], [-3.484039, 55.483344], [-3.429433, 55.518744], [-3.416127, 55.535956], [-3.410308, 55.550198], [-3.390126, 55.573961], [-3.381703, 55.591539], [-3.368031, 55.607489], [-3.317209, 55.623277], [-3.271067, 55.649888], [-3.245473, 55.657375], [-3.209625, 55.658189], [-3.162221, 55.655748], [-3.116363, 55.647854], [-3.055816, 55.627183], [-2.972035, 55.630357], [-2.921132, 55.622301], [-2.883046, 55.610093], [-2.860341, 55.595933], [-2.842152, 55.590522], [-2.81664, 55.591539], [-2.791737, 55.601711], [-2.759348, 55.611721], [-2.715443, 55.612779], [-2.676422, 55.605455], [-2.655507, 55.595364], [-2.628774, 55.587633], [-2.57551, 55.58633], [-2.516103, 55.591498], [-2.451405, 55.605862], [-2.422678, 55.609117], [-2.380442, 55.631415], [-2.343861, 55.644029], [-2.322418, 55.648668], [-2.307118, 55.645331], [-2.267812, 55.645453], [-2.253285, 55.647406], [-2.243276, 55.650214], [-2.236155, 55.655015], [-2.18163, 55.701809], [-2.17634, 55.708197], [-2.171946, 55.716213], [-2.167958, 55.720201], [-2.163319, 55.72309], [-2.15392, 55.72724], [-2.143544, 55.733629], [-2.138295, 55.736029], [-2.121938, 55.740383], [-2.117055, 55.742174], [-2.092519, 55.757473], [-2.087717, 55.762763], [-2.085072, 55.767646], [-2.082183, 55.782782], [-2.078969, 55.790676], [-2.074086, 55.794013], [-2.06843, 55.796129], [-2.023061, 55.805854]]}}, {"type": "Feature", "properties": {"id": 3697, "wso_id": 291115, "objectid": 2894, "featurecla": "River", "scalerank": 10, "rivernum": 403894, "dissolve": "403894River", "name": "Aire", "min_zoom": 6, "strokeweig": 0.2, "name_alt": "Aisne, Oise", "min_label": 7, "label": "Aire", "wikidataid": "Q408614", "name_ar": null, "name_bn": null, "name_de": "Aire", "name_en": "Aire", "name_es": "Aire", "name_fr": "Aire", "name_el": null, "name_hi": null, "name_hu": "Aire", "name_id": "Aire", "name_it": "Aire", "name_ja": "\u30a8\u30fc\u30eb\u5ddd", "name_ko": null, "name_nl": "Aire", "name_pl": "Aire", "name_pt": "Aire", "name_ru": "\u042d\u0440\u0430", "name_sv": null, "name_tr": null, "name_vi": null, "name_zh": "\u827e\u723e\u6cb3", "ne_id": 1159111203, "name_fa": null, "name_he": null, "name_uk": null, "name_ur": null, "name_zht": "\u827e\u723e\u6cb3"}, "bbox": [2.071951, 48.733832, 5.430349, 49.534166], "geometry": {"type": "LineString", "coordinates": [[5.430349, 48.733832], [5.417654, 48.748684], [5.407481, 48.770006], [5.401134, 48.800686], [5.390961, 48.831692], [5.37143, 48.854153], [5.350108, 48.872463], [5.322602, 48.910061], [5.278575, 48.927232], [5.240489, 48.947984], [5.203868, 48.975735], [5.179698, 49.002102], [5.165538, 49.020657], [5.144786, 49.034817], [5.132009, 49.064032], [5.113943, 49.093248], [5.089041, 49.129299], [5.064138, 49.158922], [5.044932, 49.189195], [5.033946, 49.220404], [5.020274, 49.249579], [4.99464, 49.275051], [4.972016, 49.293443], [4.965505, 49.305813], [4.965587, 49.314846], [4.959158, 49.325385], [4.941661, 49.335842], [4.915212, 49.344468], [4.884613, 49.347073], [4.857432, 49.342922], [4.838878, 49.334377], [4.82016, 49.320746], [4.800629, 49.317369], [4.781749, 49.31981], [4.773692, 49.32803], [4.763357, 49.345649], [4.715017, 49.397121], [4.7046, 49.416571], [4.697113, 49.436347], [4.679698, 49.463202], [4.658214, 49.486477], [4.640636, 49.497707], [4.624522, 49.497382], [4.6067, 49.492906], [4.583995, 49.491116], [4.524181, 49.503974], [4.491059, 49.504055], [4.422699, 49.50023], [4.394705, 49.503567], [4.361583, 49.51553], [4.326508, 49.51911], [4.277517, 49.531562], [4.24879, 49.534166], [4.225922, 49.531399], [4.204356, 49.51732], [4.16863, 49.507148], [4.142345, 49.496039], [4.117849, 49.481676], [4.086111, 49.458726], [4.051036, 49.452053], [4.02296, 49.434312], [4.0088, 49.429267], [3.993337, 49.429918], [3.976899, 49.434556], [3.959646, 49.436103], [3.913341, 49.419827], [3.828949, 49.410712], [3.806895, 49.402737], [3.795584, 49.394192], [3.780935, 49.388414], [3.742198, 49.389553], [3.599783, 49.406236], [3.527354, 49.410549], [3.508311, 49.413316], [3.487315, 49.410793], [3.45753, 49.398586], [3.422618, 49.388617], [3.389659, 49.391588], [3.351573, 49.398871], [3.256033, 49.39883], [3.174001, 49.410956], [3.082286, 49.408922], [3.037934, 49.415107], [2.966807, 49.420885], [2.909923, 49.437812], [2.878673, 49.442043], [2.845876, 49.443061], [2.814464, 49.423977], [2.790701, 49.403957], [2.763194, 49.360989], [2.74464, 49.340237], [2.714854, 49.327704], [2.675141, 49.325914], [2.640473, 49.327216], [2.604503, 49.314643], [2.530528, 49.303168], [2.504568, 49.290432], [2.485606, 49.276272], [2.443696, 49.254299], [2.411469, 49.22012], [2.376313, 49.203111], [2.364024, 49.182766], [2.348643, 49.163723], [2.324229, 49.157375], [2.290538, 49.154527], [2.252696, 49.14411], [2.222911, 49.127875], [2.208751, 49.111233], [2.20102, 49.096096], [2.187022, 49.083645], [2.168305, 49.076483], [2.149425, 49.074123], [2.12794, 49.067857], [2.103282, 49.051337], [2.083507, 49.029771], [2.073985, 49.011623], [2.071951, 48.995673]]}}, {"type": "Feature", "properties": {"id": 6433, "wso_id": 83809, "objectid": 3660, "featurecla": "River", "scalerank": 11, "rivernum": 404660, "dissolve": "404660River", "name": "Wye", "min_zoom": 6.7, "strokeweig": 0.2, "name_alt": null, "min_label": 7.7, "label": "Wye", "wikidataid": "Q19695", "name_ar": null, "name_bn": null, "name_de": "Wye", "name_en": "Wye", "name_es": "Wye", "name_fr": "Wye", "name_el": null, "name_hi": "\u0935\u0947\u0908 \u0928\u0926\u0940", "name_hu": "Wye", "name_id": null, "name_it": "Wye", "name_ja": "\u30ef\u30a4\u5ddd", "name_ko": null, "name_nl": "Wye", "name_pl": "Wye", "name_pt": "Wye", "name_ru": "\u0423\u0430\u0439", "name_sv": "Wye", "name_tr": null, "name_vi": null, "name_zh": "\u5a01\u6cb3", "ne_id": 1159112137, "name_fa": "\u0631\u0648\u062f \u0648\u0627\u06cc", "name_he": null, "name_uk": "\u0412\u0430\u0439", "name_ur": null, "name_zht": "\u5a01\u6cb3"}, "bbox": [-3.435943, 51.616929, -2.602284, 52.443101], "geometry": {"type": "MultiLineString", "coordinates": [[[-2.647532, 51.82217], [-2.647776, 51.821967]], [[-2.647532, 51.82217], [-2.654652, 51.80801], [-2.676259, 51.786933], [-2.679799, 51.778632], [-2.681467, 51.772528], [-2.68102, 51.765204], [-2.677154, 51.75845], [-2.670644, 51.749742], [-2.67101, 51.744208], [-2.674387, 51.73664], [-2.677642, 51.732489], [-2.684193, 51.726304], [-2.684804, 51.722235], [-2.683461, 51.716986], [-2.674672, 51.703518], [-2.667226, 51.686021], [-2.664052, 51.680487], [-2.662221, 51.675767], [-2.662099, 51.672553], [-2.666249, 51.66885], [-2.682037, 51.66474], [-2.684478, 51.662421], [-2.68399, 51.659329], [-2.678619, 51.654202], [-2.673492, 51.64761], [-2.672963, 51.638251], [-2.665598, 51.616929]], [[-3.389638, 52.443101], [-3.370025, 52.436225], [-3.350942, 52.421373], [-3.332387, 52.395413], [-3.318227, 52.356676], [-3.309641, 52.311103], [-3.310455, 52.27383], [-3.319203, 52.25495], [-3.332102, 52.255601], [-3.343007, 52.26557], [-3.36559, 52.264309], [-3.406606, 52.237982], [-3.435943, 52.20189], [-3.430491, 52.176988], [-3.404042, 52.164374], [-3.382802, 52.157945], [-3.368398, 52.148586], [-3.34732, 52.107489], [-3.330312, 52.094387], [-3.30956, 52.082994], [-3.268788, 52.051174], [-3.246571, 52.043931], [-3.221506, 52.048285], [-3.168324, 52.07453], [-3.131459, 52.088284], [-3.104888, 52.118801], [-3.091176, 52.126695], [-3.07429, 52.126207], [-3.030588, 52.116197], [-2.989817, 52.113674], [-2.950022, 52.099311], [-2.840932, 52.080471], [-2.810292, 52.070502], [-2.794057, 52.062445], [-2.773752, 52.057278], [-2.707997, 52.056301], [-2.674631, 52.049302], [-2.642812, 52.034125], [-2.622222, 52.013251], [-2.619211, 51.994086], [-2.630116, 51.983059], [-2.645619, 51.976467], [-2.65392, 51.968166], [-2.651235, 51.961086], [-2.623525, 51.952541], [-2.607289, 51.941718], [-2.602284, 51.926988], [-2.621978, 51.897447], [-2.608998, 51.865139], [-2.620025, 51.837714], [-2.629506, 51.853502], [-2.636138, 51.853502], [-2.641957, 51.847154], [-2.647532, 51.82217]]]}}, {"type": "Feature", "properties": {"id": 5503, "wso_id": 291115, "objectid": 3818, "featurecla": "River", "scalerank": 11, "rivernum": 404818, "dissolve": "404818River", "name": "Eure", "min_zoom": 6.7, "strokeweig": 0.2, "name_alt": null, "min_label": 7.7, "label": "Eure", "wikidataid": "Q23798", "name_ar": null, "name_bn": null, "name_de": "Eure", "name_en": "Eure", "name_es": "Eure", "name_fr": "Eure", "name_el": "\u0395\u03c1", "name_hi": null, "name_hu": "Eure", "name_id": null, "name_it": "Eure", "name_ja": "\u30a6\u30fc\u30eb\u5ddd", "name_ko": "\uc678\ub974\uac15", "name_nl": "Eure", "name_pl": "Eure", "name_pt": "Eure", "name_ru": "\u042d\u0440", "name_sv": null, "name_tr": null, "name_vi": null, "name_zh": "\u5384\u5c14\u6cb3", "ne_id": 1159112365, "name_fa": "\u0627\u0648\u0631", "name_he": "\u05d0\u05e8", "name_uk": "\u0415\u0440", "name_ur": null, "name_zht": "\u5384\u723e\u6cb3"}, "bbox": [0.82838, 48.394761, 1.58546, 49.308417], "geometry": {"type": "LineString", "coordinates": [[0.82838, 48.561591], [0.863292, 48.55801], [0.912771, 48.54564], [0.972667, 48.527086], [1.041026, 48.510159], [1.093598, 48.498765], [1.142589, 48.493557], [1.166026, 48.486314], [1.187511, 48.475328], [1.20102, 48.464586], [1.217947, 48.458197], [1.283702, 48.455227], [1.317638, 48.443915], [1.345388, 48.430609], [1.386485, 48.416164], [1.411632, 48.403632], [1.438975, 48.394761], [1.46461, 48.396715], [1.480724, 48.406887], [1.485118, 48.417914], [1.485362, 48.428616], [1.494884, 48.448147], [1.490489, 48.460354], [1.491222, 48.474433], [1.507009, 48.488959], [1.533458, 48.506415], [1.559906, 48.527655], [1.57838, 48.549791], [1.58546, 48.569525], [1.580577, 48.585924], [1.558849, 48.61579], [1.549815, 48.63524], [1.531993, 48.655422], [1.462169, 48.687893], [1.437511, 48.704169], [1.424571, 48.722805], [1.409516, 48.761908], [1.381602, 48.784573], [1.36378, 48.80329], [1.36199, 48.821112], [1.372406, 48.830756], [1.395193, 48.844428], [1.411876, 48.851508], [1.435557, 48.858954], [1.444184, 48.863756], [1.451427, 48.870795], [1.454112, 48.880601], [1.454112, 48.888373], [1.445323, 48.909573], [1.44809, 48.917304], [1.441417, 48.927639], [1.433116, 48.936265], [1.400645, 48.998765], [1.382823, 49.015855], [1.368907, 49.023668], [1.346446, 49.04857], [1.310802, 49.075181], [1.26824, 49.101223], [1.21518, 49.12344], [1.202159, 49.131415], [1.195974, 49.143459], [1.187266, 49.17829], [1.172699, 49.204576], [1.173595, 49.220445], [1.184255, 49.238471], [1.201671, 49.256496], [1.214692, 49.273586], [1.214854, 49.289293], [1.209239, 49.308417]]}}, {"type": "Feature", "properties": {"id": 6698, "wso_id": 83748, "objectid": 4865, "featurecla": "River", "scalerank": 10, "rivernum": 405865, "dissolve": "405865River", "name": "Swale", "min_zoom": 6, "strokeweig": 0.2, "name_alt": "Ouse", "min_label": 7, "label": "Swale", "wikidataid": "Q3396347", "name_ar": null, "name_bn": null, "name_de": "Swale", "name_en": "Swale", "name_es": "Swale", "name_fr": "Swale", "name_el": null, "name_hi": null, "name_hu": null, "name_id": null, "name_it": null, "name_ja": null, "name_ko": null, "name_nl": "Swale", "name_pl": "Swale", "name_pt": null, "name_ru": null, "name_sv": "Swale", "name_tr": null, "name_vi": null, "name_zh": null, "ne_id": 1159113929, "name_fa": null, "name_he": null, "name_uk": null, "name_ur": null, "name_zht": null}, "bbox": [-2.23412, 53.700629, -0.726471, 54.446682], "geometry": {"type": "LineString", "coordinates": [[-2.23412, 54.446682], [-2.228424, 54.436998], [-2.216135, 54.427069], [-2.195953, 54.418606], [-2.150258, 54.405748], [-2.13976, 54.396877], [-2.122304, 54.388414], [-2.084625, 54.383043], [-2.035553, 54.382961], [-1.951772, 54.390611], [-1.889312, 54.385484], [-1.859446, 54.389472], [-1.836822, 54.397935], [-1.824941, 54.40644], [-1.808583, 54.412095], [-1.775136, 54.413804], [-1.680287, 54.406399], [-1.641103, 54.398017], [-1.600209, 54.37759], [-1.561594, 54.368313], [-1.53661, 54.35342], [-1.516591, 54.334215], [-1.502105, 54.306057], [-1.475494, 54.287909], [-1.457102, 54.272366], [-1.444244, 54.254788], [-1.441762, 54.239976], [-1.442494, 54.226142], [-1.437489, 54.210842], [-1.426137, 54.198635], [-1.390207, 54.185777], [-1.362701, 54.173245], [-1.340566, 54.151435], [-1.332021, 54.122789], [-1.329457, 54.099351], [-1.321889, 54.089993], [-1.30899, 54.083482], [-1.293324, 54.067125], [-1.273305, 54.050686], [-1.249867, 54.04385], [-1.230621, 54.041002], [-1.198598, 54.019029], [-1.149648, 53.995592], [-1.104888, 53.962551], [-1.092397, 53.924058], [-1.102895, 53.892727], [-1.116607, 53.868883], [-1.110951, 53.856187], [-1.094716, 53.841742], [-1.056956, 53.818061], [-1.051869, 53.796291], [-1.00178, 53.774644], [-0.975819, 53.76024], [-0.945953, 53.746812], [-0.87267, 53.727729], [-0.8544, 53.713121], [-0.846425, 53.702541], [-0.836903, 53.702541], [-0.82311, 53.70718], [-0.781158, 53.707709], [-0.726471, 53.700629]]}}, {"type": "Feature", "properties": {"id": 4217, "wso_id": 291115, "objectid": 5143, "featurecla": "River", "scalerank": 12, "rivernum": 406143, "dissolve": "406143River", "name": "Petit Gland", "min_zoom": 7, "strokeweig": 0.2, "name_alt": "Gland, Oise", "min_label": 8, "label": null, "wikidataid": null, "name_ar": null, "name_bn": null, "name_de": null, "name_en": null, "name_es": null, "name_fr": null, "name_el": null, "name_hi": null, "name_hu": null, "name_id": null, "name_it": null, "name_ja": null, "name_ko": null, "name_nl": null, "name_pl": null, "name_pt": null, "name_ru": null, "name_sv": null, "name_tr": null, "name_vi": null, "name_zh": null, "ne_id": 1159114551, "name_fa": null, "name_he": null, "name_uk": null, "name_ur": null, "name_zht": null}, "bbox": [2.845876, 49.443061, 4.403087, 49.948065], "geometry": {"type": "LineString", "coordinates": [[4.403087, 49.913723], [4.379161, 49.911078], [4.362315, 49.90644], [4.355317, 49.898912], [4.34254, 49.893052], [4.269867, 49.893052], [4.202485, 49.887437], [4.181651, 49.889879], [4.166677, 49.898505], [4.151378, 49.911078], [4.128591, 49.923041], [4.065684, 49.935736], [4.043956, 49.948065], [4.005382, 49.936754], [3.966075, 49.93122], [3.924815, 49.918362], [3.8921, 49.915269], [3.821056, 49.91942], [3.770763, 49.916409], [3.677501, 49.90526], [3.648692, 49.906806], [3.614431, 49.917955], [3.582367, 49.92357], [3.559255, 49.911607], [3.538341, 49.888902], [3.488048, 49.850084], [3.472423, 49.831529], [3.454845, 49.814602], [3.395274, 49.781684], [3.372081, 49.756822], [3.365001, 49.729967], [3.378266, 49.686998], [3.366384, 49.667222], [3.340505, 49.651679], [3.291026, 49.63524], [3.269054, 49.621039], [3.222341, 49.611965], [3.159028, 49.589301], [3.125255, 49.581936], [3.070079, 49.580146], [3.036632, 49.564195], [3.018565, 49.564439], [3.002452, 49.56745], [2.989024, 49.566555], [2.979666, 49.556138], [2.966482, 49.516059], [2.954438, 49.504543], [2.939464, 49.502021], [2.925304, 49.503404], [2.906016, 49.496975], [2.878673, 49.475328], [2.845876, 49.443061]]}}, {"type": "Feature", "properties": {"id": 6013, "wso_id": 83747, "objectid": 5652, "featurecla": "River", "scalerank": 10, "rivernum": 406652, "dissolve": "406652River", "name": "Shannon", "min_zoom": 6, "strokeweig": 0.2, "name_alt": null, "min_label": 7, "label": "Shannon", "wikidataid": "Q192820", "name_ar": "\u0634\u0627\u0646\u0648\u0646", "name_bn": null, "name_de": "Shannon", "name_en": "Shannon", "name_es": "Shannon", "name_fr": "Shannon", "name_el": null, "name_hi": null, "name_hu": "Shannon", "name_id": "Shannon", "name_it": "Shannon", "name_ja": "\u30b7\u30e3\u30ce\u30f3\u5ddd", "name_ko": "\uc100\ub10c\uac15", "name_nl": "Shannon", "name_pl": "Shannon", "name_pt": "Shannon", "name_ru": "\u0428\u0430\u043d\u043d\u043e\u043d", "name_sv": "Shannon", "name_tr": "Shannon", "name_vi": null, "name_zh": "\u9999\u519c\u6cb3", "ne_id": 1159115649, "name_fa": "\u0631\u0648\u062f\u062e\u0627\u0646\u0647 \u0634\u0627\u0646\u0648\u0646", "name_he": "\u05e9\u05d0\u05e0\u05d5\u05df", "name_uk": "\u0428\u0435\u043d\u043d\u043e\u043d", "name_ur": "\u062f\u0631\u06cc\u0627\u0626\u06d2 \u0634\u06cc\u0646\u0646", "name_zht": "\u9999\u8fb2\u6cb3"}, "bbox": [-8.756907, 53.8522, -8.106923, 54.006741], "geometry": {"type": "LineString", "coordinates": [[-8.756907, 53.895453], [-8.713002, 53.887112], [-8.697255, 53.875637], [-8.660553, 53.866929], [-8.637603, 53.857327], [-8.619211, 53.8522], [-8.60851, 53.857815], [-8.59789, 53.870754], [-8.56135, 53.894843], [-8.539662, 53.914496], [-8.525258, 53.921942], [-8.448557, 53.937649], [-8.432281, 53.956041], [-8.403391, 53.966457], [-8.367096, 53.973619], [-8.318756, 53.978705], [-8.2412, 54.006252], [-8.21345, 54.006741], [-8.187652, 53.996731], [-8.163075, 53.982408], [-8.116526, 53.962877], [-8.106923, 53.952541]]}}, {"type": "Feature", "properties": {"id": 6794, "wso_id": 83749, "objectid": 5898, "featurecla": "River", "scalerank": 10, "rivernum": 406898, "dissolve": "406898River", "name": "Suir", "min_zoom": 6, "strokeweig": 0.2, "name_alt": "Barrow", "min_label": 7, "label": "Suir", "wikidataid": "Q1128134", "name_ar": null, "name_bn": null, "name_de": "Suir", "name_en": "Suir", "name_es": "Suir", "name_fr": "Suir", "name_el": null, "name_hi": null, "name_hu": null, "name_id": null, "name_it": "Suir", "name_ja": "\u30b7\u30e5\u30a2\u5ddd", "name_ko": null, "name_nl": "Suir", "name_pl": "Suir", "name_pt": "Suir", "name_ru": "\u0428\u0443\u0440", "name_sv": "Suir", "name_tr": null, "name_vi": null, "name_zh": null, "ne_id": 1159116099, "name_fa": null, "name_he": null, "name_uk": "\u0428\u0443\u0440", "name_ur": null, "name_zht": null}, "bbox": [-7.992543, 52.247382, -6.991607, 52.875637], "geometry": {"type": "LineString", "coordinates": [[-7.845367, 52.875149], [-7.827219, 52.875637], [-7.812734, 52.870266], [-7.801747, 52.860256], [-7.798695, 52.848293], [-7.812815, 52.817816], [-7.821401, 52.781806], [-7.824086, 52.747952], [-7.819244, 52.733059], [-7.811187, 52.723538], [-7.80602, 52.702826], [-7.812327, 52.680569], [-7.832021, 52.667304], [-7.859202, 52.656236], [-7.883901, 52.639228], [-7.905344, 52.61107], [-7.944163, 52.539455], [-7.965566, 52.522121], [-7.9829, 52.512681], [-7.992543, 52.498236], [-7.983632, 52.473863], [-7.929107, 52.410346], [-7.922027, 52.393785], [-7.922271, 52.37995], [-7.913075, 52.356187], [-7.88858, 52.328274], [-7.852122, 52.304185], [-7.817006, 52.299221], [-7.790924, 52.300971], [-7.791249, 52.312445], [-7.792714, 52.320258], [-7.791737, 52.325507], [-7.788726, 52.331855], [-7.780426, 52.339097], [-7.773183, 52.341986], [-7.76594, 52.343248], [-7.738108, 52.343695], [-7.590972, 52.359849], [-7.523997, 52.354153], [-7.484486, 52.345201], [-7.364654, 52.335639], [-7.325551, 52.318996], [-7.312734, 52.31151], [-7.29304, 52.293524], [-7.260406, 52.270331], [-7.231068, 52.254869], [-7.215932, 52.248765], [-7.206695, 52.247382], [-7.202504, 52.249335], [-7.199045, 52.251695], [-7.183217, 52.265448], [-7.179555, 52.267524], [-7.173451, 52.269599], [-7.165761, 52.270901], [-7.152984, 52.27147], [-7.129018, 52.26439], [-7.10204, 52.25373], [-7.089019, 52.2508], [-7.079579, 52.249742], [-7.074086, 52.250881], [-7.054799, 52.251899], [-7.043446, 52.254096], [-7.034088, 52.257148], [-7.011464, 52.266913], [-6.996002, 52.270697], [-6.991607, 52.266547]]}}, {"type": "Feature", "properties": {"id": 6817, "wso_id": 83749, "objectid": 6181, "featurecla": "River", "scalerank": 11, "rivernum": 407181, "dissolve": "407181River", "name": "Barrow", "min_zoom": 6.7, "strokeweig": 0.2, "name_alt": null, "min_label": 7.7, "label": "Barrow", "wikidataid": "Q936301", "name_ar": null, "name_bn": null, "name_de": "Barrow", "name_en": "Barrow", "name_es": "Barrow", "name_fr": "Barrow", "name_el": null, "name_hi": null, "name_hu": null, "name_id": null, "name_it": "Barrow", "name_ja": "\u30d0\u30ed\u30fc\u5ddd", "name_ko": null, "name_nl": "Barrow", "name_pl": "Barrow", "name_pt": null, "name_ru": "\u0411\u0430\u0440\u0440\u043e\u0443", "name_sv": "Barrow", "name_tr": null, "name_vi": null, "name_zh": "\u5df4\u7f57\u6cb3", "ne_id": 1159116647, "name_fa": null, "name_he": "\u05d1\u05d0\u05e8\u05d5", "name_uk": "\u0411\u0430\u0440\u0440\u043e\u0443", "name_ur": null, "name_zht": "\u5df4\u7f85\u6cb3"}, "bbox": [-7.473785, 52.277493, -6.919789, 53.186347], "geometry": {"type": "LineString", "coordinates": [[-7.473785, 53.166083], [-7.462026, 53.179877], [-7.435618, 53.186347], [-7.405832, 53.182522], [-7.377512, 53.169867], [-7.354888, 53.154975], [-7.327504, 53.144761], [-7.304758, 53.142076], [-7.302073, 53.139106], [-7.295522, 53.136461], [-7.28482, 53.134101], [-7.259185, 53.134467], [-7.241567, 53.136664], [-7.209828, 53.14647], [-7.201405, 53.150336], [-7.182607, 53.153062], [-7.138417, 53.152248], [-7.127065, 53.150214], [-7.11262, 53.152655], [-7.092152, 53.16706], [-7.072581, 53.166327], [-7.067738, 53.164211], [-7.062489, 53.159817], [-7.062001, 53.155829], [-7.063547, 53.152248], [-7.066762, 53.149848], [-7.071685, 53.14883], [-7.07665, 53.14883], [-7.081451, 53.148342], [-7.085113, 53.145819], [-7.087554, 53.142768], [-7.090972, 53.136298], [-7.09081, 53.132392], [-7.089996, 53.129869], [-7.083892, 53.125881], [-7.069814, 53.110419], [-7.055409, 53.086412], [-7.050282, 53.072577], [-7.046702, 53.055894], [-7.035634, 53.046861], [-7.029286, 53.03856], [-6.991526, 53.005276], [-6.980214, 52.989651], [-6.968617, 52.970608], [-6.970611, 52.957994], [-6.939524, 52.920559], [-6.934397, 52.912258], [-6.931223, 52.900295], [-6.930776, 52.89647], [-6.93102, 52.884508], [-6.933217, 52.87108], [-6.932281, 52.845282], [-6.932932, 52.841376], [-6.937652, 52.8251], [-6.944732, 52.82099], [-6.956166, 52.817125], [-6.962026, 52.793199], [-6.963775, 52.769721], [-6.973215, 52.744045], [-6.963694, 52.723619], [-6.972524, 52.70897], [-6.974355, 52.682603], [-6.984731, 52.645168], [-6.980214, 52.628607], [-6.966176, 52.615465], [-6.930043, 52.594875], [-6.919789, 52.583645], [-6.919789, 52.566107], [-6.932973, 52.514106], [-6.928822, 52.49136], [-6.920766, 52.472642], [-6.923248, 52.465969], [-6.919993, 52.448676], [-6.923573, 52.432522], [-6.927724, 52.424994], [-6.933013, 52.421373], [-6.943837, 52.423], [-6.94933, 52.423163], [-6.95523, 52.421129], [-6.95637, 52.418158], [-6.954457, 52.40705], [-6.954701, 52.395453], [-6.956939, 52.388739], [-6.960072, 52.383124], [-6.968739, 52.372382], [-6.972157, 52.368964], [-6.993479, 52.354478], [-6.996938, 52.349189], [-6.998402, 52.344428], [-6.997874, 52.339504], [-6.997874, 52.333686], [-6.998687, 52.324937], [-6.999867, 52.320461], [-7.002675, 52.315619], [-7.015289, 52.300238], [-7.018422, 52.294257], [-7.019358, 52.289374], [-7.017201, 52.286078], [-7.014394, 52.283271], [-7.01061, 52.28144], [-7.004262, 52.279364], [-6.997955, 52.278022], [-6.994252, 52.277493]]}}, {"type": "Feature", "properties": {"id": 6582, "wso_id": 291223, "objectid": 7573, "featurecla": "River", "scalerank": 11, "rivernum": 408573, "dissolve": "408573River", "name": "Somme", "min_zoom": 6.7, "strokeweig": 0.2, "name_alt": null, "min_label": 7.7, "label": "Somme", "wikidataid": "Q37646", "name_ar": "\u0646\u0647\u0631 \u0627\u0644\u0633\u0648\u0645", "name_bn": null, "name_de": "Somme", "name_en": "Somme", "name_es": "Somme", "name_fr": "Somme", "name_el": "\u03a3\u03bf\u03bc", "name_hi": null, "name_hu": null, "name_id": null, "name_it": "Somme", "name_ja": "\u30bd\u30f3\u30e0\u5ddd", "name_ko": "\uc19c\uac15", "name_nl": "Somme", "name_pl": "Somma", "name_pt": "Somme", "name_ru": "\u0421\u043e\u043c\u043c\u0430", "name_sv": "Somme", "name_tr": null, "name_vi": "Somme", "name_zh": "\u7d22\u59c6\u6cb3", "ne_id": 1159118837, "name_fa": "\u0631\u0648\u062f\u062e\u0627\u0646\u0647 \u0633\u0645", "name_he": "\u05e1\u05d5\u05dd", "name_uk": "\u0421\u043e\u043c\u043c\u0430", "name_ur": null, "name_zht": "\u7d22\u59c6\u6cb3"}, "bbox": [1.654307, 49.755113, 3.451182, 50.186591], "geometry": {"type": "LineString", "coordinates": [[3.451182, 49.934963], [3.423595, 49.923814], [3.393077, 49.913967], [3.358409, 49.905748], [3.330333, 49.895168], [3.300629, 49.859076], [3.270356, 49.837877], [3.238943, 49.818996], [3.206391, 49.791815], [3.165375, 49.768704], [3.155447, 49.759508], [3.144786, 49.755113], [3.067393, 49.75845], [3.038341, 49.761949], [3.007009, 49.772691], [2.98113, 49.790025], [2.965099, 49.809312], [2.954845, 49.825141], [2.932465, 49.844062], [2.926443, 49.861802], [2.926524, 49.883531], [2.931163, 49.903144], [2.929861, 49.919908], [2.915294, 49.934963], [2.898692, 49.946723], [2.892426, 49.955634], [2.882172, 49.960191], [2.827159, 49.963039], [2.810802, 49.968329], [2.795909, 49.968004], [2.743988, 49.943305], [2.71697, 49.940579], [2.701345, 49.926744], [2.680431, 49.928697], [2.658051, 49.912746], [2.646495, 49.913723], [2.633311, 49.918118], [2.595876, 49.918199], [2.540538, 49.926988], [2.514334, 49.918443], [2.468761, 49.914374], [2.434744, 49.898342], [2.395274, 49.893541], [2.345063, 49.897366], [2.298839, 49.909491], [2.264496, 49.922268], [2.224946, 49.932034], [2.161876, 49.957953], [2.120779, 49.972561], [2.084809, 49.987698], [2.035899, 50.019436], [1.946137, 50.047675], [1.898692, 50.065863], [1.862804, 50.08393], [1.806651, 50.117825], [1.654307, 50.186591]]}}, {"type": "Feature", "properties": {"id": 6882, "wso_id": 83746, "objectid": 8026, "featurecla": "River", "scalerank": 10, "rivernum": 409026, "dissolve": "409026River", "name": "Blackwater", "min_zoom": 6, "strokeweig": 0.2, "name_alt": "Bann", "min_label": 7, "label": "Blackwater", "wikidataid": "Q19691", "name_ar": null, "name_bn": null, "name_de": "Bann", "name_en": "Bann", "name_es": "Bann", "name_fr": "Bann", "name_el": null, "name_hi": null, "name_hu": null, "name_id": null, "name_it": "Bann", "name_ja": "\u30d0\u30f3\u5ddd", "name_ko": null, "name_nl": "Bann", "name_pl": "Bann", "name_pt": null, "name_ru": "\u0411\u0430\u043d\u043d", "name_sv": "Bann", "name_tr": "Bann", "name_vi": null, "name_zh": "\u73ed\u6069\u6cb3", "ne_id": 1159119763, "name_fa": null, "name_he": "\u05d1\u05d0\u05df", "name_uk": null, "name_ur": null, "name_zht": "\u73ed\u6069\u6cb3"}, "bbox": [-7.278066, 54.351264, -6.470123, 55.177802], "geometry": {"type": "MultiLineString", "coordinates": [[[-7.278066, 54.41177], [-7.220286, 54.423407], [-7.161936, 54.430854], [-7.145009, 54.436103], [-7.123891, 54.439032], [-7.08727, 54.437161], [-7.009918, 54.424465], [-6.978627, 54.414211], [-6.945221, 54.400051], [-6.91983, 54.384589], [-6.89684, 54.360745], [-6.872629, 54.351264], [-6.843861, 54.352037], [-6.832834, 54.358832], [-6.805572, 54.380194], [-6.803375, 54.387152], [-6.810292, 54.401068], [-6.795888, 54.413031], [-6.717275, 54.403795], [-6.710846, 54.406887], [-6.705312, 54.423529], [-6.695546, 54.431342], [-6.700836, 54.43769], [-6.698964, 54.444403], [-6.675608, 54.451361], [-6.65807, 54.464097], [-6.656484, 54.476874], [-6.625152, 54.508368], [-6.599436, 54.516913], [-6.583608, 54.508246], [-6.571929, 54.513007], [-6.572499, 54.513251], [-6.571685, 54.513739]], [[-6.478586, 54.744778], [-6.477935, 54.74551], [-6.476715, 54.74551], [-6.470123, 54.767768], [-6.470937, 54.768256], [-6.471344, 54.768297], [-6.476186, 54.773179], [-6.480458, 54.779608], [-6.480702, 54.782701], [-6.48176, 54.783352], [-6.48233, 54.793443], [-6.48176, 54.799262], [-6.476186, 54.810126], [-6.476186, 54.810289], [-6.475657, 54.810492], [-6.471099, 54.82746], [-6.482249, 54.852118], [-6.481679, 54.869696], [-6.491444, 54.89053], [-6.510325, 54.906887], [-6.506988, 54.916002], [-6.502431, 54.921373], [-6.504872, 54.93008], [-6.513661, 54.939602], [-6.520416, 54.945136], [-6.546702, 54.953559], [-6.55248, 54.959418], [-6.551422, 54.976304], [-6.582021, 54.995185], [-6.591949, 55.020209], [-6.583079, 55.02912], [-6.58259, 55.040513], [-6.593902, 55.060736], [-6.613922, 55.076606], [-6.616322, 55.092353], [-6.630116, 55.105862], [-6.662953, 55.127427], [-6.677154, 55.149563], [-6.687082, 55.157457], [-6.705312, 55.163235], [-6.754506, 55.177802]]]}}, {"type": "Feature", "properties": {"id": 7006, "wso_id": 83745, "objectid": 8516, "featurecla": "River", "scalerank": 10, "rivernum": 409516, "dissolve": "409516River", "name": "Tay", "min_zoom": 6, "strokeweig": 0.2, "name_alt": null, "min_label": 7, "label": "Tay", "wikidataid": "Q19719", "name_ar": null, "name_bn": null, "name_de": "Tay", "name_en": "Tay", "name_es": "Tay", "name_fr": "Tay", "name_el": null, "name_hi": null, "name_hu": null, "name_id": null, "name_it": "Tay", "name_ja": "\u30c6\u30a4\u5ddd", "name_ko": null, "name_nl": "Tay", "name_pl": "Tay", "name_pt": null, "name_ru": "\u0422\u044d\u0439", "name_sv": "Tay", "name_tr": null, "name_vi": null, "name_zh": "\u6cf0\u6cb3", "ne_id": 1159120641, "name_fa": "\u0631\u0648\u062f \u062a\u06cc", "name_he": "\u05d8\u05d0\u05d9", "name_uk": "\u0422\u0435\u0439", "name_ur": null, "name_zht": "\u6cf0\u6cb3"}, "bbox": [-4.773508, 56.365912, -3.323476, 56.729071], "geometry": {"type": "MultiLineString", "coordinates": [[[-4.773508, 56.613593], [-4.732411, 56.626939], [-4.706288, 56.632066], [-4.677154, 56.641425], [-4.602284, 56.680854], [-4.579579, 56.687201], [-4.504303, 56.686184], [-4.453684, 56.68887], [-4.429962, 56.691799]], [[-4.193837, 56.704372], [-4.181508, 56.704739], [-4.044789, 56.71955], [-3.945668, 56.721666], [-3.869008, 56.724677], [-3.82429, 56.729071], [-3.797475, 56.728746], [-3.740224, 56.720608], [-3.706614, 56.706204], [-3.6787, 56.690904], [-3.655995, 56.673489], [-3.634755, 56.653795], [-3.617747, 56.630439], [-3.605092, 56.60399], [-3.590566, 56.593329], [-3.569, 56.581977], [-3.527333, 56.562567], [-3.464467, 56.549058], [-3.430776, 56.543647], [-3.394154, 56.546861], [-3.384918, 56.540351], [-3.392323, 56.525784], [-3.442128, 56.484768], [-3.457509, 56.4619], [-3.458079, 56.442613], [-3.448964, 56.429104], [-3.436025, 56.417467], [-3.427235, 56.403062], [-3.416819, 56.392401], [-3.370758, 56.387681], [-3.323476, 56.365912]]]}}, {"type": "Feature", "properties": {"id": 6931, "wso_id": 83773, "objectid": 716, "featurecla": "Lake Centerline", "scalerank": 10, "rivernum": 401716, "dissolve": "401716Lake Centerline", "name": "Annalee", "min_zoom": 6, "strokeweig": 0.2, "name_alt": "Erne", "min_label": 7, "label": "Annalee", "wikidataid": "Q11958206", "name_ar": null, "name_bn": null, "name_de": null, "name_en": "Annalee", "name_es": null, "name_fr": null, "name_el": null, "name_hi": null, "name_hu": null, "name_id": null, "name_it": null, "name_ja": null, "name_ko": null, "name_nl": null, "name_pl": null, "name_pt": null, "name_ru": null, "name_sv": null, "name_tr": null, "name_vi": null, "name_zh": null, "ne_id": 1159122083, "name_fa": null, "name_he": null, "name_uk": null, "name_ur": null, "name_zht": null}, "bbox": [-7.551015, 54.154446, -7.46052, 54.276597], "geometry": {"type": "LineString", "coordinates": [[-7.46052, 54.154446], [-7.496083, 54.207017], [-7.529286, 54.232489], [-7.546864, 54.255927], [-7.551015, 54.276597]]}}, {"type": "Feature", "properties": {"id": 6882, "wso_id": 83746, "objectid": 8026, "featurecla": "Lake Centerline", "scalerank": 10, "rivernum": 409026, "dissolve": "409026Lake Centerline", "name": "Blackwater", "min_zoom": 6, "strokeweig": 0.2, "name_alt": "Bann", "min_label": 7, "label": "Blackwater", "wikidataid": "Q3778034", "name_ar": null, "name_bn": null, "name_de": null, "name_en": "Blackwater", "name_es": "Blackwater", "name_fr": null, "name_el": null, "name_hi": null, "name_hu": null, "name_id": null, "name_it": null, "name_ja": null, "name_ko": null, "name_nl": null, "name_pl": "Blackwater", "name_pt": null, "name_ru": null, "name_sv": null, "name_tr": null, "name_vi": null, "name_zh": null, "ne_id": 1159124541, "name_fa": null, "name_he": "\u05d1\u05dc\u05d0\u05e7\u05d5\u05d5\u05d8\u05e8", "name_uk": null, "name_ur": null, "name_zht": null}, "bbox": [-6.571685, 54.513739, -6.418121, 54.744778], "geometry": {"type": "LineString", "coordinates": [[-6.571685, 54.513739], [-6.543568, 54.529731], [-6.527821, 54.53974], [-6.482167, 54.553412], [-6.437082, 54.568793], [-6.436025, 54.569159], [-6.436025, 54.586615], [-6.433827, 54.602932], [-6.424794, 54.626044], [-6.418121, 54.640082], [-6.420806, 54.654731], [-6.437734, 54.66767], [-6.474924, 54.693549], [-6.498687, 54.706244], [-6.496816, 54.713813], [-6.495758, 54.722846], [-6.486724, 54.735745], [-6.478586, 54.744778]]}}, {"type": "Feature", "properties": {"id": 6931, "wso_id": 83773, "objectid": 716, "featurecla": "Lake Centerline", "scalerank": 10, "rivernum": 401716, "dissolve": "401716Lake Centerline", "name": "Annalee", "min_zoom": 6, "strokeweig": 0.2, "name_alt": "Erne", "min_label": 7, "label": "Annalee", "wikidataid": "Q11958206", "name_ar": null, "name_bn": null, "name_de": null, "name_en": "Annalee", "name_es": null, "name_fr": null, "name_el": null, "name_hi": null, "name_hu": null, "name_id": null, "name_it": null, "name_ja": null, "name_ko": null, "name_nl": null, "name_pl": null, "name_pt": null, "name_ru": null, "name_sv": null, "name_tr": null, "name_vi": null, "name_zh": null, "ne_id": 1159124893, "name_fa": null, "name_he": null, "name_uk": null, "name_ur": null, "name_zht": null}, "bbox": [-8.011098, 54.373603, -7.654286, 54.493354], "geometry": {"type": "LineString", "coordinates": [[-7.654286, 54.373603], [-7.68456, 54.419989], [-7.710072, 54.435533], [-7.741119, 54.454739], [-7.777943, 54.473212], [-7.817291, 54.486558], [-7.854726, 54.493354], [-7.893951, 54.492865], [-8.011098, 54.480211]]}}, {"type": "Feature", "properties": {"id": 7006, "wso_id": 83745, "objectid": 8516, "featurecla": "Lake Centerline", "scalerank": 10, "rivernum": 409516, "dissolve": "409516Lake Centerline", "name": "Tay", "min_zoom": 6, "strokeweig": 0.2, "name_alt": null, "min_label": 7, "label": "Tay", "wikidataid": "Q19719", "name_ar": null, "name_bn": null, "name_de": "Tay", "name_en": "Tay", "name_es": "Tay", "name_fr": "Tay", "name_el": null, "name_hi": null, "name_hu": null, "name_id": null, "name_it": "Tay", "name_ja": "\u30c6\u30a4\u5ddd", "name_ko": null, "name_nl": "Tay", "name_pl": "Tay", "name_pt": null, "name_ru": "\u0422\u044d\u0439", "name_sv": "Tay", "name_tr": null, "name_vi": null, "name_zh": "\u6cf0\u6cb3", "ne_id": 1159127737, "name_fa": "\u0631\u0648\u062f \u062a\u06cc", "name_he": "\u05d8\u05d0\u05d9", "name_uk": "\u0422\u0435\u0439", "name_ur": null, "name_zht": "\u6cf0\u6cb3"}, "bbox": [-4.429962, 56.691799, -4.193837, 56.704372], "geometry": {"type": "LineString", "coordinates": [[-4.429962, 56.691799], [-4.395172, 56.696194], [-4.34675, 56.69599], [-4.291005, 56.701646], [-4.193837, 56.704372]]}}], "bbox": [-21.5108943350204, 27.3133812520774, 65.8488875660212, 70.0931664083274]}